[{"OBJECT_NAME":"STARLINK-35566","OBJECT_ID":"2025-235D","EPOCH":"2026-03-24T23:14:44.780640","MEAN_MOTION":15.30205911,"ECCENTRICITY":0.00024044,"INCLINATION":53.1589,"RA_OF_ASC_NODE":174.0935,"ARG_OF_PERICENTER":78.971,"MEAN_ANOMALY":281.1561,"EPHEMERIS_TYPE":0,"CLASSIFICATION_TYPE":"U","NORAD_CAT_ID":66061,"ELEMENT_SET_NO":999,"REV_AT_EPOCH":2526,"BSTAR":0.001026503,"MEAN_MOTION_DOT":0.00030173,"MEAN_MOTION_DDOT":0},{"OBJECT_NAME":"STARLINK-35421","OBJECT_ID":"2025-235E","EPOCH":"2026-03-24T16:11:35.117664","MEAN_MOTION":15.30215578,"ECCENTRICITY":0.00012754,"INCLINATION":53.1589,"RA_OF_ASC_NODE":175.816,"ARG_OF_PERICENTER":96.1842,"MEAN_ANOMALY":263.9305,"EPHEMERIS_TYPE":0,"CLASSIFICATION_TYPE":"U","NORAD_CAT_ID":66062,"ELEMENT_SET_NO":999,"REV_AT_EPOCH":2521,"BSTAR":0.00076823378,"MEAN_MOTION_DOT":0.00022473,"MEAN_MOTION_DDOT":0},{"OBJECT_NAME":"STARLINK-35562","OBJECT_ID":"2025-235F","EPOCH":"2026-03-24T22:58:12.205344","MEAN_MOTION":15.30202306,"ECCENTRICITY":0.00041594,"INCLINATION":53.1589,"RA_OF_ASC_NODE":174.731,"ARG_OF_PERICENTER":80.5978,"MEAN_ANOMALY":279.5493,"EPHEMERIS_TYPE":0,"CLASSIFICATION_TYPE":"U","NORAD_CAT_ID":66063,"ELEMENT_SET_NO":999,"REV_AT_EPOCH":2525,"BSTAR":0.00096023728,"MEAN_MOTION_DOT":0.00028195,"MEAN_MOTION_DDOT":0},{"OBJECT_NAME":"STARLINK-35542","OBJECT_ID":"2025-235G","EPOCH":"2026-03-24T16:14:37.470048","MEAN_MOTION":15.30217408,"ECCENTRICITY":0.00015696,"INCLINATION":53.1578,"RA_OF_ASC_NODE":175.8305,"ARG_OF_PERICENTER":79.4957,"MEAN_ANOMALY":280.622,"EPHEMERIS_TYPE":0,"CLASSIFICATION_TYPE":"U","NORAD_CAT_ID":66064,"ELEMENT_SET_NO":999,"REV_AT_EPOCH":2521,"BSTAR":0.00083739681,"MEAN_MOTION_DOT":0.00024537,"MEAN_MOTION_DDOT":0},{"OBJECT_NAME":"STARLINK-35375","OBJECT_ID":"2025-235H","EPOCH":"2026-03-24T22:55:09.477984","MEAN_MOTION":15.30216537,"ECCENTRICITY":0.00028829,"INCLINATION":53.1583,"RA_OF_ASC_NODE":174.7197,"ARG_OF_PERICENTER":77.2014,"MEAN_ANOMALY":282.9309,"EPHEMERIS_TYPE":0,"CLASSIFICATION_TYPE":"U","NORAD_CAT_ID":66065,"ELEMENT_SET_NO":999,"REV_AT_EPOCH":2525,"BSTAR":0.00058578758,"MEAN_MOTION_DOT":0.00017039,"MEAN_MOTION_DDOT":0},{"OBJECT_NAME":"STARLINK-35179","OBJECT_ID":"2025-235J","EPOCH":"2026-03-24T22:36:55.983168","MEAN_MOTION":15.30214957,"ECCENTRICITY":0.00011957,"INCLINATION":53.1572,"RA_OF_ASC_NODE":174.6422,"ARG_OF_PERICENTER":70.8092,"MEAN_ANOMALY":289.3038,"EPHEMERIS_TYPE":0,"CLASSIFICATION_TYPE":"U","NORAD_CAT_ID":66066,"ELEMENT_SET_NO":999,"REV_AT_EPOCH":2525,"BSTAR":0.0010405423,"MEAN_MOTION_DOT":0.000306,"MEAN_MOTION_DDOT":0},{"OBJECT_NAME":"STARLINK-35401","OBJECT_ID":"2025-235K","EPOCH":"2026-03-24T16:02:28.058784","MEAN_MOTION":15.3021607,"ECCENTRICITY":0.00014413,"INCLINATION":53.1566,"RA_OF_ASC_NODE":175.7744,"ARG_OF_PERICENTER":76.9429,"MEAN_ANOMALY":283.1732,"EPHEMERIS_TYPE":0,"CLASSIFICATION_TYPE":"U","NORAD_CAT_ID":66067,"ELEMENT_SET_NO":999,"REV_AT_EPOCH":2518,"BSTAR":0.00077781657,"MEAN_MOTION_DOT":0.0002276,"MEAN_MOTION_DDOT":0},{"OBJECT_NAME":"STARLINK-35422","OBJECT_ID":"2025-235L","EPOCH":"2026-03-24T15:42:42.600672","MEAN_MOTION":15.30216567,"ECCENTRICITY":0.00015834,"INCLINATION":53.1589,"RA_OF_ASC_NODE":175.6882,"ARG_OF_PERICENTER":71.5666,"MEAN_ANOMALY":288.5507,"EPHEMERIS_TYPE":0,"CLASSIFICATION_TYPE":"U","NORAD_CAT_ID":66068,"ELEMENT_SET_NO":999,"REV_AT_EPOCH":2518,"BSTAR":0.00084390838,"MEAN_MOTION_DOT":0.00024731,"MEAN_MOTION_DDOT":0},{"OBJECT_NAME":"STARLINK-35279","OBJECT_ID":"2025-235M","EPOCH":"2026-03-24T12:25:29.543520","MEAN_MOTION":15.3021105,"ECCENTRICITY":0.00016061,"INCLINATION":53.1591,"RA_OF_ASC_NODE":176.2539,"ARG_OF_PERICENTER":104.3164,"MEAN_ANOMALY":255.8016,"EPHEMERIS_TYPE":0,"CLASSIFICATION_TYPE":"U","NORAD_CAT_ID":66069,"ELEMENT_SET_NO":999,"REV_AT_EPOCH":2519,"BSTAR":0.00070496286,"MEAN_MOTION_DOT":0.00020585,"MEAN_MOTION_DDOT":0},{"OBJECT_NAME":"STARLINK-35295","OBJECT_ID":"2025-235N","EPOCH":"2026-03-24T22:49:03.777888","MEAN_MOTION":15.30230923,"ECCENTRICITY":3.335e-5,"INCLINATION":53.1566,"RA_OF_ASC_NODE":174.6916,"ARG_OF_PERICENTER":139.949,"MEAN_ANOMALY":220.1535,"EPHEMERIS_TYPE":0,"CLASSIFICATION_TYPE":"U","NORAD_CAT_ID":66070,"ELEMENT_SET_NO":999,"REV_AT_EPOCH":2525,"BSTAR":0.00093387824,"MEAN_MOTION_DOT":0.00027428,"MEAN_MOTION_DDOT":0},{"OBJECT_NAME":"STARLINK-35323","OBJECT_ID":"2025-235P","EPOCH":"2026-03-24T23:05:36.100032","MEAN_MOTION":15.30203462,"ECCENTRICITY":0.0001183,"INCLINATION":53.159,"RA_OF_ASC_NODE":174.0524,"ARG_OF_PERICENTER":248.4894,"MEAN_ANOMALY":111.598,"EPHEMERIS_TYPE":0,"CLASSIFICATION_TYPE":"U","NORAD_CAT_ID":66071,"ELEMENT_SET_NO":999,"REV_AT_EPOCH":2526,"BSTAR":0.00085641568,"MEAN_MOTION_DOT":0.00025094,"MEAN_MOTION_DDOT":0},{"OBJECT_NAME":"STARLINK-35299","OBJECT_ID":"2025-235Q","EPOCH":"2026-03-24T16:10:03.851616","MEAN_MOTION":15.30221307,"ECCENTRICITY":0.00012949,"INCLINATION":53.1565,"RA_OF_ASC_NODE":175.8088,"ARG_OF_PERICENTER":75.2795,"MEAN_ANOMALY":284.835,"EPHEMERIS_TYPE":0,"CLASSIFICATION_TYPE":"U","NORAD_CAT_ID":66072,"ELEMENT_SET_NO":999,"REV_AT_EPOCH":2521,"BSTAR":0.00094783669,"MEAN_MOTION_DOT":0.00027837,"MEAN_MOTION_DDOT":0},{"OBJECT_NAME":"STARLINK-35274","OBJECT_ID":"2025-235R","EPOCH":"2026-03-24T22:50:35.964960","MEAN_MOTION":15.30204068,"ECCENTRICITY":0.00027464,"INCLINATION":53.1575,"RA_OF_ASC_NODE":174.6992,"ARG_OF_PERICENTER":79.1553,"MEAN_ANOMALY":280.9757,"EPHEMERIS_TYPE":0,"CLASSIFICATION_TYPE":"U","NORAD_CAT_ID":66073,"ELEMENT_SET_NO":999,"REV_AT_EPOCH":2525,"BSTAR":0.00085767349,"MEAN_MOTION_DOT":0.00025133,"MEAN_MOTION_DDOT":0},{"OBJECT_NAME":"STARLINK-35321","OBJECT_ID":"2025-235S","EPOCH":"2026-03-24T22:41:28.246848","MEAN_MOTION":15.30213415,"ECCENTRICITY":0.00015747,"INCLINATION":53.1574,"RA_OF_ASC_NODE":174.6618,"ARG_OF_PERICENTER":91.4965,"MEAN_ANOMALY":268.6216,"EPHEMERIS_TYPE":0,"CLASSIFICATION_TYPE":"U","NORAD_CAT_ID":66074,"ELEMENT_SET_NO":999,"REV_AT_EPOCH":2525,"BSTAR":0.00057210828,"MEAN_MOTION_DOT":0.0001663,"MEAN_MOTION_DDOT":0},{"OBJECT_NAME":"STARLINK-35131","OBJECT_ID":"2025-235T","EPOCH":"2026-03-24T15:57:54.426528","MEAN_MOTION":15.30213785,"ECCENTRICITY":0.00013606,"INCLINATION":53.1576,"RA_OF_ASC_NODE":175.7519,"ARG_OF_PERICENTER":75.4928,"MEAN_ANOMALY":284.6223,"EPHEMERIS_TYPE":0,"CLASSIFICATION_TYPE":"U","NORAD_CAT_ID":66075,"ELEMENT_SET_NO":999,"REV_AT_EPOCH":2521,"BSTAR":0.00070983198,"MEAN_MOTION_DOT":0.00020732,"MEAN_MOTION_DDOT":0},{"OBJECT_NAME":"STARLINK-34801","OBJECT_ID":"2025-235U","EPOCH":"2026-03-24T16:16:08.538240","MEAN_MOTION":15.30217634,"ECCENTRICITY":0.00017126,"INCLINATION":53.1584,"RA_OF_ASC_NODE":175.8342,"ARG_OF_PERICENTER":87.4061,"MEAN_ANOMALY":272.7136,"EPHEMERIS_TYPE":0,"CLASSIFICATION_TYPE":"U","NORAD_CAT_ID":66076,"ELEMENT_SET_NO":999,"REV_AT_EPOCH":2521,"BSTAR":0.00063776638,"MEAN_MOTION_DOT":0.00018587,"MEAN_MOTION_DDOT":0}]
