STARLINK-35566          
1 66061U 25235D   26083.96857385  .00030173  00000+0  10265-2 0  9995
2 66061  53.1589 174.0935 0002404  78.9710 281.1561 15.30205911 25269
STARLINK-35421          
1 66062U 25235E   26083.67471201  .00022473  00000+0  76823-3 0  9990
2 66062  53.1589 175.8160 0001275  96.1842 263.9305 15.30215578 25211
STARLINK-35562          
1 66063U 25235F   26083.95708571  .00028195  00000+0  96024-3 0  9997
2 66063  53.1589 174.7310 0004159  80.5978 279.5493 15.30202306 25258
STARLINK-35542          
1 66064U 25235G   26083.67682257  .00024537  00000+0  83740-3 0  9996
2 66064  53.1578 175.8305 0001569  79.4957 280.6220 15.30217408 25215
STARLINK-35375          
1 66065U 25235H   26083.95497081  .00017039  00000+0  58579-3 0  9998
2 66065  53.1583 174.7197 0002882  77.2014 282.9309 15.30216537 25257
STARLINK-35179          
1 66066U 25235J   26083.94231462  .00030600  00000+0  10405-2 0  9991
2 66066  53.1572 174.6422 0001195  70.8092 289.3038 15.30214957 25251
STARLINK-35401          
1 66067U 25235K   26083.66838031  .00022760  00000+0  77782-3 0  9996
2 66067  53.1566 175.7744 0001441  76.9429 283.1732 15.30216070 25182
STARLINK-35422          
1 66068U 25235L   26083.65465973  .00024731  00000+0  84391-3 0  9991
2 66068  53.1589 175.6882 0001583  71.5666 288.5507 15.30216567 25181
STARLINK-35279          
1 66069U 25235M   26083.51770305  .00020585  00000+0  70496-3 0  9999
2 66069  53.1591 176.2539 0001606 104.3164 255.8016 15.30211050 25190
STARLINK-35295          
1 66070U 25235N   26083.95073817  .00027428  00000+0  93388-3 0  9991
2 66070  53.1566 174.6916 0000333 139.9490 220.1535 15.30230923 25255
STARLINK-35323          
1 66071U 25235P   26083.96222338  .00025094  00000+0  85642-3 0  9998
2 66071  53.1590 174.0524 0001183 248.4894 111.5980 15.30203462 25266
STARLINK-35299          
1 66072U 25235Q   26083.67365569  .00027837  00000+0  94784-3 0  9995
2 66072  53.1565 175.8088 0001294  75.2795 284.8350 15.30221307 25210
STARLINK-35274          
1 66073U 25235R   26083.95180515  .00025133  00000+0  85767-3 0  9991
2 66073  53.1575 174.6992 0002746  79.1553 280.9757 15.30204068 25258
STARLINK-35321          
1 66074U 25235S   26083.94546582  .00016630  00000+0  57211-3 0  9996
2 66074  53.1574 174.6618 0001574  91.4965 268.6216 15.30213415 25254
STARLINK-35131          
1 66075U 25235T   26083.66521327  .00020732  00000+0  70983-3 0  9995
2 66075  53.1576 175.7519 0001360  75.4928 284.6223 15.30213785 25215
STARLINK-34801          
1 66076U 25235U   26083.67787660  .00018587  00000+0  63777-3 0  9999
2 66076  53.1584 175.8342 0001712  87.4061 272.7136 15.30217634 25210
